{
    "links": {
        "self": "http://www.neowsapp.com/rest/v1/neo/3843050?api_key=iIulBulltgU6a56xZRHN4H3l9WmuAYTsLGpBGhQ2"
    },
    "id": "3843050",
    "neo_reference_id": "3843050",
    "name": "(2019 MF2)",
    "designation": "2019 MF2",
    "nasa_jpl_url": "http://ssd.jpl.nasa.gov/sbdb.cgi?sstr=3843050",
    "absolute_magnitude_h": 22.6,
    "estimated_diameter": {
        "kilometers": {
            "estimated_diameter_min": 0.0802703167,
            "estimated_diameter_max": 0.1794898848
        },
        "meters": {
            "estimated_diameter_min": 80.2703167283,
            "estimated_diameter_max": 179.4898847799
        },
        "miles": {
            "estimated_diameter_min": 0.049877647,
            "estimated_diameter_max": 0.1115298092
        },
        "feet": {
            "estimated_diameter_min": 263.3540659348,
            "estimated_diameter_max": 588.8775935812
        }
    },
    "is_potentially_hazardous_asteroid": false,
    "close_approach_data": [
        {
            "close_approach_date": "2019-06-25",
            "close_approach_date_full": "2019-Jun-25 09:49",
            "epoch_date_close_approach": 1561456140000,
            "relative_velocity": {
                "kilometers_per_second": "7.901455343",
                "kilometers_per_hour": "28445.2392347339",
                "miles_per_hour": "17674.7654567157"
            },
            "miss_distance": {
                "astronomical": "0.1648091988",
                "lunar": "64.1107783332",
                "kilometers": "24655105.096886556",
                "miles": "15319971.9106682328"
            },
            "orbiting_body": "Earth"
        }
    ],
    "orbital_data": {
        "orbit_id": "8",
        "orbit_determination_date": "2020-09-11 07:43:32",
        "first_observation_date": "2019-06-28",
        "last_observation_date": "2019-07-25",
        "data_arc_in_days": 27,
        "observations_used": 52,
        "orbit_uncertainty": "7",
        "minimum_orbit_intersection": ".127874",
        "jupiter_tisserand_invariant": "3.535",
        "epoch_osculation": "2459000.5",
        "eccentricity": ".4682322011425089",
        "semi_major_axis": "2.151619549638171",
        "inclination": "10.67703558564739",
        "ascending_node_longitude": "280.3837600028696",
        "orbital_period": "1152.780573822094",
        "perihelion_distance": "1.144161991889837",
        "perihelion_argument": "357.4518958314961",
        "aphelion_distance": "3.159077107386506",
        "perihelion_time": "2458658.878317811957",
        "mean_anomaly": "106.6844882542888",
        "mean_motion": ".3122883991759198",
        "equinox": "J2000",
        "orbit_class": {
            "orbit_class_type": "AMO",
            "orbit_class_description": "Near-Earth asteroid orbits similar to that of 1221 Amor",
            "orbit_class_range": "1.017 AU < q (perihelion) < 1.3 AU"
        }
    },
    "is_sentry_object": false
}